{
  "type": "FeatureCollection",
  "features": [
    {
      "type": "Feature",
      "properties": {
        "norad_id": 31736,
        "name": "FENGYUN 1C DEB",
        "group": "fengyun-1c-debris",
        "lat": -54.71754445785532,
        "lon": 163.5446481089184,
        "alt_km": 844.3194203820331,
        "timestamp": "2025-12-20T07:33:51.096717+00:00",
        "meta_object_name": "FENGYUN 1C DEB",
        "meta_object_id": "1999-025CEK",
        "meta_epoch": "2025-12-18T20:29:32.925120",
        "meta_mean_motion": 14.14187403,
        "meta_eccentricity": 0.00112563,
        "meta_inclination": 98.678,
        "meta_ra_of_asc_node": 354.5904,
        "meta_arg_of_pericenter": 221.9883,
        "meta_mean_anomaly": 138.0428,
        "meta_ephemeris_type": 0,
        "meta_classification_type": "U",
        "meta_norad_cat_id": 31736,
        "meta_element_set_no": 999,
        "meta_rev_at_epoch": 64151,
        "meta_bstar": 0.00013491285,
        "meta_mean_motion_dot": 2.15e-06,
        "meta_mean_motion_ddot": 0,
        "tle_line1": "1 31736U 99025CEK 25352.85385330  .00000215  00000+0  13491-3 0  9995",
        "tle_line2": "2 31736  98.6780 354.5904 0011256 221.9883 138.0428 14.14187403641514"
      },
      "geometry": {
        "type": "Point",
        "coordinates": [
          163.5446481089184,
          -54.71754445785532
        ]
      }
    },
    {
      "type": "Feature",
      "properties": {
        "norad_id": 31737,
        "name": "FENGYUN 1C DEB",
        "group": "fengyun-1c-debris",
        "lat": -21.20730837111674,
        "lon": -155.50102399071946,
        "alt_km": 760.4832127000991,
        "timestamp": "2025-12-20T07:33:51.096727+00:00",
        "meta_object_name": "FENGYUN 1C DEB",
        "meta_object_id": "1999-025CEL",
        "meta_epoch": "2025-12-19T01:21:12.117600",
        "meta_mean_motion": 14.68788681,
        "meta_eccentricity": 0.01482376,
        "meta_inclination": 97.9159,
        "meta_ra_of_asc_node": 26.3744,
        "meta_arg_of_pericenter": 355.5628,
        "meta_mean_anomaly": 34.5905,
        "meta_ephemeris_type": 0,
        "meta_classification_type": "U",
        "meta_norad_cat_id": 31737,
        "meta_element_set_no": 999,
        "meta_rev_at_epoch": 98292,
        "meta_bstar": 0.000458366,
        "meta_mean_motion_dot": 3.107e-05,
        "meta_mean_motion_ddot": 0,
        "tle_line1": "1 31737U 99025CEL 25353.05639025  .00003107  00000+0  45837-3 0  9994",
        "tle_line2": "2 31737  97.9159  26.3744 0148237 355.5628  34.5905 14.68788681982921"
      },
      "geometry": {
        "type": "Point",
        "coordinates": [
          -155.50102399071946,
          -21.20730837111674
        ]
      }
    },
    {
      "type": "Feature",
      "properties": {
        "norad_id": 31738,
        "name": "FENGYUN 1C DEB",
        "group": "fengyun-1c-debris",
        "lat": 61.0442870008964,
        "lon": -101.10182084307274,
        "alt_km": 758.8713792739372,
        "timestamp": "2025-12-20T07:33:51.096737+00:00",
        "meta_object_name": "FENGYUN 1C DEB",
        "meta_object_id": "1999-025CEM",
        "meta_epoch": "2025-12-19T22:21:26.675136",
        "meta_mean_motion": 13.85081508,
        "meta_eccentricity": 0.03069546,
        "meta_inclination": 99.3603,
        "meta_ra_of_asc_node": 61.1713,
        "meta_arg_of_pericenter": 81.0657,
        "meta_mean_anomaly": 282.511,
        "meta_ephemeris_type": 0,
        "meta_classification_type": "U",
        "meta_norad_cat_id": 31738,
        "meta_element_set_no": 999,
        "meta_rev_at_epoch": 62357,
        "meta_bstar": 0.0007797197,
        "meta_mean_motion_dot": 1.232e-05,
        "meta_mean_motion_ddot": 0,
        "tle_line1": "1 31738U 99025CEM 25353.93155874  .00001232  00000+0  77972-3 0  9999",
        "tle_line2": "2 31738  99.3603  61.1713 0306954  81.0657 282.5110 13.85081508623578"
      },
      "geometry": {
        "type": "Point",
        "coordinates": [
          -101.10182084307274,
          61.0442870008964
        ]
      }
    },
    {
      "type": "Feature",
      "properties": {
        "norad_id": 31739,
        "name": "FENGYUN 1C DEB",
        "group": "fengyun-1c-debris",
        "lat": -62.106660174210596,
        "lon": -147.35865562191694,
        "alt_km": 926.939396461622,
        "timestamp": "2025-12-20T07:33:51.096747+00:00",
        "meta_object_name": "FENGYUN 1C DEB",
        "meta_object_id": "1999-025CEN",
        "meta_epoch": "2025-12-17T20:53:51.315648",
        "meta_mean_motion": 14.19220052,
        "meta_eccentricity": 0.01282982,
        "meta_inclination": 98.7472,
        "meta_ra_of_asc_node": 47.1378,
        "meta_arg_of_pericenter": 63.5862,
        "meta_mean_anomaly": 297.8416,
        "meta_ephemeris_type": 0,
        "meta_classification_type": "U",
        "meta_norad_cat_id": 31739,
        "meta_element_set_no": 999,
        "meta_rev_at_epoch": 95559,
        "meta_bstar": 8.0451342e-05,
        "meta_mean_motion_dot": 1.4e-06,
        "meta_mean_motion_ddot": 0,
        "tle_line1": "1 31739U 99025CEN 25351.87073282  .00000140  00000+0  80451-4 0  9997",
        "tle_line2": "2 31739  98.7472  47.1378 0128298  63.5862 297.8416 14.19220052955598"
      },
      "geometry": {
        "type": "Point",
        "coordinates": [
          -147.35865562191694,
          -62.106660174210596
        ]
      }
    },
    {
      "type": "Feature",
      "properties": {
        "norad_id": 31740,
        "name": "FENGYUN 1C DEB",
        "group": "fengyun-1c-debris",
        "lat": 72.07095723281738,
        "lon": 19.160544473624807,
        "alt_km": 735.1026316548614,
        "timestamp": "2025-12-20T07:33:51.096757+00:00",
        "meta_object_name": "FENGYUN 1C DEB",
        "meta_object_id": "1999-025CEP",
        "meta_epoch": "2025-12-14T23:34:19.860384",
        "meta_mean_motion": 14.42186075,
        "meta_eccentricity": 0.00242908,
        "meta_inclination": 99.8218,
        "meta_ra_of_asc_node": 160.6587,
        "meta_arg_of_pericenter": 61.8964,
        "meta_mean_anomaly": 89.7364,
        "meta_ephemeris_type": 0,
        "meta_classification_type": "U",
        "meta_norad_cat_id": 31740,
        "meta_element_set_no": 999,
        "meta_rev_at_epoch": 65107,
        "meta_bstar": 0.00089360339,
        "meta_mean_motion_dot": 2.898e-05,
        "meta_mean_motion_ddot": 0,
        "tle_line1": "1 31740U 99025CEP 25348.98217431  .00002898  00000+0  89360-3 0  9992",
        "tle_line2": "2 31740  99.8218 160.6587 0024290  61.8964  89.7364 14.42186075651072"
      },
      "geometry": {
        "type": "Point",
        "coordinates": [
          19.160544473624807,
          72.07095723281738
        ]
      }
    },
    {
      "type": "Feature",
      "properties": {
        "norad_id": 31742,
        "name": "FENGYUN 1C DEB",
        "group": "fengyun-1c-debris",
        "lat": 37.827758855075274,
        "lon": 41.43793695020156,
        "alt_km": 809.0121043779909,
        "timestamp": "2025-12-20T07:33:51.096767+00:00",
        "meta_object_name": "FENGYUN 1C DEB",
        "meta_object_id": "1999-025CER",
        "meta_epoch": "2025-12-18T08:12:21.525984",
        "meta_mean_motion": 14.39819052,
        "meta_eccentricity": 0.00763571,
        "meta_inclination": 98.9188,
        "meta_ra_of_asc_node": 212.3809,
        "meta_arg_of_pericenter": 312.9024,
        "meta_mean_anomaly": 46.5769,
        "meta_ephemeris_type": 0,
        "meta_classification_type": "U",
        "meta_norad_cat_id": 31742,
        "meta_element_set_no": 999,
        "meta_rev_at_epoch": 96730,
        "meta_bstar": 0.00054482467,
        "meta_mean_motion_dot": 1.72e-05,
        "meta_mean_motion_ddot": 0,
        "tle_line1": "1 31742U 99025CER 25352.34191581  .00001720  00000+0  54482-3 0  9996",
        "tle_line2": "2 31742  98.9188 212.3809 0076357 312.9024  46.5769 14.39819052967300"
      },
      "geometry": {
        "type": "Point",
        "coordinates": [
          41.43793695020156,
          37.827758855075274
        ]
      }
    },
    {
      "type": "Feature",
      "properties": {
        "norad_id": 31743,
        "name": "FENGYUN 1C DEB",
        "group": "fengyun-1c-debris",
        "lat": -6.468168921050054,
        "lon": -76.32551226565623,
        "alt_km": 815.6421035261374,
        "timestamp": "2025-12-20T07:33:51.096777+00:00",
        "meta_object_name": "FENGYUN 1C DEB",
        "meta_object_id": "1999-025CES",
        "meta_epoch": "2025-12-19T07:08:16.584288",
        "meta_mean_motion": 14.31339819,
        "meta_eccentricity": 0.0037408,
        "meta_inclination": 99.1437,
        "meta_ra_of_asc_node": 281.5575,
        "meta_arg_of_pericenter": 199.3916,
        "meta_mean_anomaly": 312.6055,
        "meta_ephemeris_type": 0,
        "meta_classification_type": "U",
        "meta_norad_cat_id": 31743,
        "meta_element_set_no": 999,
        "meta_rev_at_epoch": 95734,
        "meta_bstar": 0.00096288,
        "meta_mean_motion_dot": 2.522e-05,
        "meta_mean_motion_ddot": 0,
        "tle_line1": "1 31743U 99025CES 25353.29741417  .00002522  00000+0  96288-3 0  9992",
        "tle_line2": "2 31743  99.1437 281.5575 0037408 199.3916 312.6055 14.31339819957348"
      },
      "geometry": {
        "type": "Point",
        "coordinates": [
          -76.32551226565623,
          -6.468168921050054
        ]
      }
    }
  ]
}